NAYIF-1 (EO-88)         
1 42017U 17008BX  20117.82677842  .00001550  00000-0  62379-4 0  9997
2 42017  97.3633 186.1362 0007479 134.5343 225.6508 15.26359610177678
MAX VALIER SAT          
1 42778U 17036P   20118.40911787  .00000966  00000-0  44566-4 0  9994
2 42778  97.3100 173.4443 0011819 193.6592 166.4327 15.22532291157960
RADFXSAT (FOX-1B)       
1 43017U 17073E   20117.76541786  .00000314  00000-0  30307-4 0  9993
2 43017  97.7248  31.9937 0256148 218.5271 139.7416 14.78890944131525
FOX-1D (AO-92)          
1 43137U 18004AC  20118.14155170  .00001074  00000-0  47258-4 0  9999
2 43137  97.4485 189.6439 0007878 228.9414 131.1143 15.24029666127226
DIWATA-2B               
1 43678U 18084H   20117.88810046  .00000163  00000-0  21984-4 0  9993
2 43678  97.8754 236.3162 0009848 356.6195   3.4971 14.91622470 81332
ES'HAIL 2               
1 43700U 18090A   20117.79702435  .00000149  00000-0  00000-0 0  9994
2 43700   0.0029 201.7233 0001075 185.5931 140.6179  1.00268103  5431
FOX-1CLIFF (AO-95)      
1 43770U 18099N   20117.97072309  .00000025  00000-0  75196-5 0  9996
2 43770  97.7084 190.2410 0014869  15.2160 344.9504 14.94959198 76223
ITASAT 1                
1 43786U 18099AE  20117.64479592 -.00000160  00000-0 -92900-5 0  9996
2 43786  97.7100 190.3029 0015369   9.6131 350.5380 14.95302069 76198
JY1SAT (JO-97)          
1 43803U 18099AX  20117.73225340  .00000381  00000-0  39617-4 0  9994
2 43803  97.7057 190.2203 0015173   9.8508 350.3007 14.95469855 76208
PSAT2 (NO-104)          
1 44354U 19036R   20117.86822977  .00013807  00000-0  20343-3 0  9993
2 44354  28.5305 359.2179 0367510 120.3241 243.4226 15.02736706 46051
BRICSAT2 (NO-103)       
1 44355U 19036S   20117.71893062  .00025745  00000-0  36656-3 0  9999
2 44355  28.5305 354.1083 0348854 128.6200 234.6161 15.07426983 46098
JAISAT-1                
1 44419U 19038F   20118.42377860  .00000917  00000-0  55925-4 0  9999
2 44419  97.5342  80.6356 0020364 309.8182  50.1256 15.12707497 44884
DUCHIFAT-3              
1 44854U 19089C   20118.13909626  .00000459  00000-0  43549-4 0  9997
2 44854  36.9669  41.5997 0008349 358.0082   2.0623 14.99033871 20595
ORBITAL FACTORY 2 (OF-2)
1 45113U 19071C   20117.73282315  .00002006  00000-0  73152-4 0  9994
2 45113  51.6429 253.3614 0012731 229.3679 130.6196 15.33167248 13199
HUSKYSAT-1              
1 45119U 19071J   20118.43574057  .00002679  00000-0  93102-4 0  9998
2 45119  51.6428 249.8054 0012035 228.2445 131.7509 15.33407962 13299
